{"type": "FeatureCollection", "features": [ {"type": "Feature", "properties": {"norad_id": 37470, "name": "FENGYUN 1C DEB", "group": "fengyun-1c-debris", "lat": 79.1026304623549, "lon": -8.310291527398082, "alt_km": 562.0012358398872, "timestamp": "2025-12-02T23:34:15.805643+00:00", "meta": {"OBJECT_NAME": "FENGYUN 1C DEB", "OBJECT_ID": "1999-025EJQ", "EPOCH": "2025-12-02T08:43:26.114016", "MEAN_MOTION": 14.99042865, "ECCENTRICITY": 0.000536, "INCLINATION": 98.6674, "RA_OF_ASC_NODE": 118.5972, "ARG_OF_PERICENTER": 185.6749, "MEAN_ANOMALY": 174.4411, "EPHEMERIS_TYPE": 0, "CLASSIFICATION_TYPE": "U", "NORAD_CAT_ID": 37470, "ELEMENT_SET_NO": 999, "REV_AT_EPOCH": 65306, "BSTAR": 0.0063565, "MEAN_MOTION_DOT": 0.00077884, "MEAN_MOTION_DDOT": 0}, "tle": {"line1": "1 37470U 99025EJQ 25336.36349669  .00077884  00000+0  63565-2 0  9991", "line2": "2 37470  98.6674 118.5972 0005360 185.6749 174.4411 14.99042865653060"}}, "geometry": {"type": "Point", "coordinates": [-8.310291527398082, 79.1026304623549]}}, {"type": "Feature", "properties": {"norad_id": 37474, "name": "FENGYUN 1C DEB", "group": "fengyun-1c-debris", "lat": -30.2839489402176, "lon": -4.564881719235963, "alt_km": 585.5893882623777, "timestamp": "2025-12-02T23:34:15.805653+00:00", "meta": {"OBJECT_NAME": "FENGYUN 1C DEB", "OBJECT_ID": "1999-025EJU", "EPOCH": "2025-11-29T19:43:16.370400", "MEAN_MOTION": 14.74736666, "ECCENTRICITY": 0.01322899, "INCLINATION": 99.1669, "RA_OF_ASC_NODE": 177.2713, "ARG_OF_PERICENTER": 175.3054, "MEAN_ANOMALY": 184.9427, "EPHEMERIS_TYPE": 0, "CLASSIFICATION_TYPE": "U", "NORAD_CAT_ID": 37474, "ELEMENT_SET_NO": 999, "REV_AT_EPOCH": 62185, "BSTAR": 0.0011640682, "MEAN_MOTION_DOT": 8.905e-05, "MEAN_MOTION_DDOT": 0}, "tle": {"line1": "1 37474U 99025EJU 25333.82171725  .00008905  00000+0  11641-2 0  9995", "line2": "2 37474  99.1669 177.2713 0132289 175.3054 184.9427 14.74736666621852"}}, "geometry": {"type": "Point", "coordinates": [-4.564881719235963, -30.2839489402176]}}, {"type": "Feature", "properties": {"norad_id": 37477, "name": "FENGYUN 1C DEB", "group": "fengyun-1c-debris", "lat": -30.196168645631975, "lon": 156.87006850280656, "alt_km": 825.9260226851175, "timestamp": "2025-12-02T23:34:15.805665+00:00", "meta": {"OBJECT_NAME": "FENGYUN 1C DEB", "OBJECT_ID": "1999-025EJX", "EPOCH": "2025-11-30T11:23:01.539168", "MEAN_MOTION": 14.19666183, "ECCENTRICITY": 0.00370674, "INCLINATION": 98.6046, "RA_OF_ASC_NODE": 339.4881, "ARG_OF_PERICENTER": 141.4491, "MEAN_ANOMALY": 218.9343, "EPHEMERIS_TYPE": 0, "CLASSIFICATION_TYPE": "U", "NORAD_CAT_ID": 37477, "ELEMENT_SET_NO": 999, "REV_AT_EPOCH": 81740, "BSTAR": 0.00075322109, "MEAN_MOTION_DOT": 1.561e-05, "MEAN_MOTION_DDOT": 0}, "tle": {"line1": "1 37477U 99025EJX 25334.47432337  .00001561  00000+0  75322-3 0  9997", "line2": "2 37477  98.6046 339.4881 0037067 141.4491 218.9343 14.19666183817401"}}, "geometry": {"type": "Point", "coordinates": [156.87006850280656, -30.196168645631975]}}, {"type": "Feature", "properties": {"norad_id": 37478, "name": "FENGYUN 1C DEB", "group": "fengyun-1c-debris", "lat": 68.50827159783661, "lon": 166.03171673543304, "alt_km": 1485.5463770228225, "timestamp": "2025-12-02T23:34:15.805675+00:00", "meta": {"OBJECT_NAME": "FENGYUN 1C DEB", "OBJECT_ID": "1999-025EJY", "EPOCH": "2025-12-01T04:38:30.240384", "MEAN_MOTION": 13.02859978, "ECCENTRICITY": 0.0548927, "INCLINATION": 99.6439, "RA_OF_ASC_NODE": 318.8464, "ARG_OF_PERICENTER": 345.6465, "MEAN_ANOMALY": 12.9573, "EPHEMERIS_TYPE": 0, "CLASSIFICATION_TYPE": "U", "NORAD_CAT_ID": 37478, "ELEMENT_SET_NO": 999, "REV_AT_EPOCH": 56411, "BSTAR": 0.0056896, "MEAN_MOTION_DOT": 3.616e-05, "MEAN_MOTION_DDOT": 0}, "tle": {"line1": "1 37478U 99025EJY 25335.19340556  .00003616  00000+0  56896-2 0  9996", "line2": "2 37478  99.6439 318.8464 0548927 345.6465  12.9573 13.02859978564119"}}, "geometry": {"type": "Point", "coordinates": [166.03171673543304, 68.50827159783661]}}, {"type": "Feature", "properties": {"norad_id": 37589, "name": "FENGYUN 1C DEB", "group": "fengyun-1c-debris", "lat": -55.02536411263554, "lon": -107.27515236064188, "alt_km": 787.2731236699292, "timestamp": "2025-12-02T23:34:15.805685+00:00", "meta": {"OBJECT_NAME": "FENGYUN 1C DEB", "OBJECT_ID": "1999-025EKH", "EPOCH": "2025-11-26T10:55:17.463072", "MEAN_MOTION": 14.0788956, "ECCENTRICITY": 0.01217098, "INCLINATION": 99.0712, "RA_OF_ASC_NODE": 232.9659, "ARG_OF_PERICENTER": 309.4482, "MEAN_ANOMALY": 49.5966, "EPHEMERIS_TYPE": 0, "CLASSIFICATION_TYPE": "U", "NORAD_CAT_ID": 37589, "ELEMENT_SET_NO": 999, "REV_AT_EPOCH": 82355, "BSTAR": 0.0039128941, "MEAN_MOTION_DOT": 7.065e-05, "MEAN_MOTION_DDOT": 0}, "tle": {"line1": "1 37589U 99025EKH 25330.45506323  .00007065  00000+0  39129-2 0  9991", "line2": "2 37589  99.0712 232.9659 0121709 309.4482  49.5966 14.07889560823558"}}, "geometry": {"type": "Point", "coordinates": [-107.27515236064188, -55.02536411263554]}}, {"type": "Feature", "properties": {"norad_id": 37594, "name": "FENGYUN 1C DEB", "group": "fengyun-1c-debris", "lat": 36.57875959794303, "lon": 0.03161877529223469, "alt_km": 862.4671928739481, "timestamp": "2025-12-02T23:34:15.805695+00:00", "meta": {"OBJECT_NAME": "FENGYUN 1C DEB", "OBJECT_ID": "1999-025EKN", "EPOCH": "2025-12-01T20:10:06.711744", "MEAN_MOTION": 14.11100402, "ECCENTRICITY": 0.00849769, "INCLINATION": 98.7356, "RA_OF_ASC_NODE": 5.4727, "ARG_OF_PERICENTER": 301.0362, "MEAN_ANOMALY": 58.2487, "EPHEMERIS_TYPE": 0, "CLASSIFICATION_TYPE": "U", "NORAD_CAT_ID": 37594, "ELEMENT_SET_NO": 999, "REV_AT_EPOCH": 77608, "BSTAR": 0.00031068206, "MEAN_MOTION_DOT": 5.35e-06, "MEAN_MOTION_DDOT": 0}, "tle": {"line1": "1 37594U 99025EKN 25335.84035546  .00000535  00000+0  31068-3 0  9999", "line2": "2 37594  98.7356   5.4727 0084976 301.0362  58.2487 14.11100402776088"}}, "geometry": {"type": "Point", "coordinates": [0.03161877529223469, 36.57875959794303]}}, {"type": "Feature", "properties": {"norad_id": 37600, "name": "FENGYUN 1C DEB", "group": "fengyun-1c-debris", "lat": 33.66912996388597, "lon": -39.82003218045372, "alt_km": 853.9047920597422, "timestamp": "2025-12-02T23:34:15.805705+00:00", "meta": {"OBJECT_NAME": "FENGYUN 1C DEB", "OBJECT_ID": "1999-025EKU", "EPOCH": "2025-12-02T03:47:53.898144", "MEAN_MOTION": 13.82391905, "ECCENTRICITY": 0.03579786, "INCLINATION": 98.9356, "RA_OF_ASC_NODE": 133.381, "ARG_OF_PERICENTER": 78.289, "MEAN_ANOMALY": 285.8195, "EPHEMERIS_TYPE": 0, "CLASSIFICATION_TYPE": "U", "NORAD_CAT_ID": 37600, "ELEMENT_SET_NO": 999, "REV_AT_EPOCH": 88341, "BSTAR": 0.0036460247, "MEAN_MOTION_DOT": 6.409e-05, "MEAN_MOTION_DDOT": 0}, "tle": {"line1": "1 37600U 99025EKU 25336.15826271  .00006409  00000+0  36460-2 0  9991", "line2": "2 37600  98.9356 133.3810 0357978  78.2890 285.8195 13.82391905883413"}}, "geometry": {"type": "Point", "coordinates": [-39.82003218045372, 33.66912996388597]}}, {"type": "Feature", "properties": {"norad_id": 37683, "name": "FENGYUN 1C DEB", "group": "fengyun-1c-debris", "lat": 79.41714413413187, "lon": -149.93731457476088, "alt_km": 938.5933188002882, "timestamp": "2025-12-02T23:34:15.805717+00:00", "meta": {"OBJECT_NAME": "FENGYUN 1C DEB", "OBJECT_ID": "1999-025EKY", "EPOCH": "2025-11-29T13:02:49.803072", "MEAN_MOTION": 13.31846496, "ECCENTRICITY": 0.05843824, "INCLINATION": 98.0006, "RA_OF_ASC_NODE": 256.1924, "ARG_OF_PERICENTER": 158.6957, "MEAN_ANOMALY": 12.7497, "EPHEMERIS_TYPE": 0, "CLASSIFICATION_TYPE": "U", "NORAD_CAT_ID": 37683, "ELEMENT_SET_NO": 999, "REV_AT_EPOCH": 29064, "BSTAR": 0.0011107018, "MEAN_MOTION_DOT": 1.369e-05, "MEAN_MOTION_DDOT": 0}, "tle": {"line1": "1 37683U 99025EKY 25333.54363198  .00001369  00000+0  11107-2 0  9997", "line2": "2 37683  98.0006 256.1924 0584382 158.6957  12.7497 13.31846496290648"}}, "geometry": {"type": "Point", "coordinates": [-149.93731457476088, 79.41714413413187]}}, {"type": "Feature", "properties": {"norad_id": 37686, "name": "FENGYUN 1C DEB", "group": "fengyun-1c-debris", "lat": -19.20770709323955, "lon": -0.3021242169133725, "alt_km": 1098.2399885802897, "timestamp": "2025-12-02T23:34:15.805727+00:00", "meta": {"OBJECT_NAME": "FENGYUN 1C DEB", "OBJECT_ID": "1999-025ELB", "EPOCH": "2025-12-02T07:33:22.437792", "MEAN_MOTION": 13.35350269, "ECCENTRICITY": 0.0396452, "INCLINATION": 99.0209, "RA_OF_ASC_NODE": 355.9344, "ARG_OF_PERICENTER": 68.1356, "MEAN_ANOMALY": 310.8807, "EPHEMERIS_TYPE": 0, "CLASSIFICATION_TYPE": "U", "NORAD_CAT_ID": 37686, "ELEMENT_SET_NO": 999, "REV_AT_EPOCH": 60488, "BSTAR": 0.0007759, "MEAN_MOTION_DOT": 5.81e-06, "MEAN_MOTION_DDOT": 0}, "tle": {"line1": "1 37686U 99025ELB 25336.31484303  .00000581  00000+0  77590-3 0  9994", "line2": "2 37686  99.0209 355.9344 0396452  68.1356 310.8807 13.35350269604882"}}, "geometry": {"type": "Point", "coordinates": [-0.3021242169133725, -19.20770709323955]}}, {"type": "Feature", "properties": {"norad_id": 37687, "name": "FENGYUN 1C DEB", "group": "fengyun-1c-debris", "lat": 81.77538948056473, "lon": -73.25235258308622, "alt_km": 822.341134329472, "timestamp": "2025-12-02T23:34:15.805737+00:00", "meta": {"OBJECT_NAME": "FENGYUN 1C DEB", "OBJECT_ID": "1999-025ELC", "EPOCH": "2025-11-30T08:50:04.368768", "MEAN_MOTION": 13.85108073, "ECCENTRICITY": 0.03342664, "INCLINATION": 98.205, "RA_OF_ASC_NODE": 11.0155, "ARG_OF_PERICENTER": 33.2837, "MEAN_ANOMALY": 345.3499, "EPHEMERIS_TYPE": 0, "CLASSIFICATION_TYPE": "U", "NORAD_CAT_ID": 37687, "ELEMENT_SET_NO": 999, "REV_AT_EPOCH": 83083, "BSTAR": 0.0043068322, "MEAN_MOTION_DOT": 7.516e-05, "MEAN_MOTION_DDOT": 0}, "tle": {"line1": "1 37687U 99025ELC 25334.36810612  .00007516  00000+0  43068-2 0  9991", "line2": "2 37687  98.2050  11.0155 0334266  33.2837 345.3499 13.85108073830835"}}, "geometry": {"type": "Point", "coordinates": [-73.25235258308622, 81.77538948056473]}}]}